[{"OBJECT_NAME":"DIWATA-2B","OBJECT_ID":"2018-084H","EPOCH":"2026-03-09T23:44:16.821312","MEAN_MOTION":14.99967379,"ECCENTRICITY":0.00117782,"INCLINATION":98.1039,"RA_OF_ASC_NODE":261.0381,"ARG_OF_PERICENTER":125.8755,"MEAN_ANOMALY":234.3563,"EPHEMERIS_TYPE":0,"CLASSIFICATION_TYPE":"U","NORAD_CAT_ID":43678,"ELEMENT_SET_NO":999,"REV_AT_EPOCH":40134,"BSTAR":0.00041230334,"MEAN_MOTION_DOT":5.066e-5,"MEAN_MOTION_DDOT":0},{"OBJECT_NAME":"STARLINK-5964","OBJECT_ID":"2023-042Z","EPOCH":"2026-03-09T00:25:17.622048","MEAN_MOTION":15.02616862,"ECCENTRICITY":0.00015763,"INCLINATION":43.0047,"RA_OF_ASC_NODE":59.3853,"ARG_OF_PERICENTER":249.2966,"MEAN_ANOMALY":110.7707,"EPHEMERIS_TYPE":0,"CLASSIFICATION_TYPE":"U","NORAD_CAT_ID":56009,"ELEMENT_SET_NO":999,"REV_AT_EPOCH":16281,"BSTAR":-0.001285248,"MEAN_MOTION_DOT":-0.00017559,"MEAN_MOTION_DDOT":0}]
